0 COSMOS 2091
1 20736U 90070B   13281.47789116  .00000025  00000-0  79016-4 0   852
2 20736 082.5798 046.7000 0003338 158.2607 270.0474 12.62449713 67716
0 COSMOS 2091
1 20736U 90070B   13283.70825230 -.00000001  00000-0 -63494-4 0   868
2 20736 082.5802 045.2764 0003395 154.3206 325.5193 12.62449951 67996
0 COSMOS 2091
1 20736U 90070B   13285.84695983 -.00000001  00000-0 -62544-4 0   871
2 20736 082.5808 043.9115 0003461 150.6845 324.3484 12.62450001 68268
0 COSMOS 2091
1 20736U 90070B   13288.36943411  .00000019  00000-0  44277-4 0   884
2 20736 082.5812 042.3019 0003505 146.7763 266.7314 12.62449810 68585
0 COSMOS 2091
1 20736U 90070B   13290.68550072  .00000043  00000-0  18073-3 0   891
2 20736 082.5812 040.8243 0003532 143.1919 351.1721 12.62449681 68870
0 COSMOS 2091
1 20736U 90070B   13292.75337299  .00000046  00000-0  19682-3 0   907
2 20736 082.5811 039.5049 0003599 139.2087 028.5738 12.62449785 69131
0 COSMOS 2091
1 20736U 90070B   13294.80306361  .00000034  00000-0  12933-3 0   911
2 20736 082.5811 038.1970 0003629 135.8383 342.7720 12.62450036 69395
